{
  "norad_id": 67686,
  "name": "UITMSAT-2",
  "history": [
    {
      "epoch": "2026-04-15T14:36:06.912576Z",
      "apogee_km": 403.2402032586915,
      "perigee_km": 389.2511030798969,
      "latitude_deg": 3.139619191176132e-05,
      "longitude_deg": -175.35661314116717,
      "height_km": 393.43528620941436,
      "semi_major_axis_km": 6774.382653169294,
      "eccentricity": 0.0010325,
      "inclination_deg": 51.6291,
      "raan_deg": 247.4402,
      "arg_perigee_deg": 300.5763,
      "mean_anomaly_deg": 59.421,
      "mean_motion_rev_day": 15.57034285
    },
    {
      "epoch": "2026-04-16T13:42:24.964128Z",
      "apogee_km": 403.09998792510396,
      "perigee_km": 388.99072091731523,
      "latitude_deg": 5.368845730589355e-05,
      "longitude_deg": -167.70209774743125,
      "height_km": 392.775097817933,
      "semi_major_axis_km": 6774.182354421209,
      "eccentricity": 0.0010414,
      "inclination_deg": 51.6296,
      "raan_deg": 242.6188,
      "arg_perigee_deg": 304.7193,
      "mean_anomaly_deg": 55.2818,
      "mean_motion_rev_day": 15.57103343
    },
    {
      "epoch": "2026-04-17T12:48:39.300480Z",
      "apogee_km": 402.9615934757567,
      "perigee_km": 388.7299975410169,
      "latitude_deg": -3.285270208748153e-05,
      "longitude_deg": -160.0316460922427,
      "height_km": 392.12470772898246,
      "semi_major_axis_km": 6773.9827955083865,
      "eccentricity": 0.00105046,
      "inclination_deg": 51.6301,
      "raan_deg": 237.7979,
      "arg_perigee_deg": 308.9048,
      "mean_anomaly_deg": 51.1006,
      "mean_motion_rev_day": 15.57172151
    },
    {
      "epoch": "2026-04-18T14:59:38.834592Z",
      "apogee_km": 402.7121617399862,
      "perigee_km": 388.3601031070075,
      "latitude_deg": 4.01043197980671e-05,
      "longitude_deg": 160.67984710615696,
      "height_km": 391.3632031005984,
      "semi_major_axis_km": 6773.673132423497,
      "eccentricity": 0.0010594,
      "inclination_deg": 51.6301,
      "raan_deg": 232.3327,
      "arg_perigee_deg": 313.2925,
      "mean_anomaly_deg": 46.7183,
      "mean_motion_rev_day": 15.57278933
    },
    {
      "epoch": "2026-04-19T14:05:43.266048Z",
      "apogee_km": 402.51834820905697,
      "perigee_km": 387.9677731626907,
      "latitude_deg": 2.3187896894340785e-05,
      "longitude_deg": 168.38913480241715,
      "height_km": 390.6367687074912,
      "semi_major_axis_km": 6773.380060685873,
      "eccentricity": 0.0010741,
      "inclination_deg": 51.6299,
      "raan_deg": 227.5092,
      "arg_perigee_deg": 317.3857,
      "mean_anomaly_deg": 42.6301,
      "mean_motion_rev_day": 15.57380005
    },
    {
      "epoch": "2026-04-20T00:52:31.361376Z",
      "apogee_km": 402.3936277262901,
      "perigee_km": 387.82789388163565,
      "latitude_deg": -4.483272160142967e-05,
      "longitude_deg": 3.9972634931973148,
      "height_km": 390.3524060852573,
      "semi_major_axis_km": 6773.247760803963,
      "eccentricity": 0.00107524,
      "inclination_deg": 51.63,
      "raan_deg": 225.2605,
      "arg_perigee_deg": 319.1163,
      "mean_anomaly_deg": 40.9021,
      "mean_motion_rev_day": 15.57425635
    },
    {
      "epoch": "2026-04-21T13:49:59.556864Z",
      "apogee_km": 402.0277994326889,
      "perigee_km": 387.3050793161774,
      "latitude_deg": -4.942269580612457e-05,
      "longitude_deg": 160.39517080707301,
      "height_km": 389.3547159311704,
      "semi_major_axis_km": 6772.803439374433,
      "eccentricity": 0.0010869,
      "inclination_deg": 51.6287,
      "raan_deg": 217.5437,
      "arg_perigee_deg": 325.3971,
      "mean_anomaly_deg": 34.6312,
      "mean_motion_rev_day": 15.57578897
    },
    {
      "epoch": "2026-04-22T11:23:24.431712Z",
      "apogee_km": 401.8361647303891,
      "perigee_km": 386.96056170649445,
      "latitude_deg": -1.5994750186454487e-06,
      "longitude_deg": -168.34564982430587,
      "height_km": 388.754880354436,
      "semi_major_axis_km": 6772.5353632184415,
      "eccentricity": 0.00109823,
      "inclination_deg": 51.6283,
      "raan_deg": 213.0418,
      "arg_perigee_deg": 329.2296,
      "mean_anomaly_deg": 30.8051,
      "mean_motion_rev_day": 15.57671378
    },
    {
      "epoch": "2026-04-23T10:29:07.880064Z",
      "apogee_km": 401.6858400507117,
      "perigee_km": 386.60031528650234,
      "latitude_deg": 3.736221900819901e-05,
      "longitude_deg": -160.54855047144954,
      "height_km": 388.1782194937516,
      "semi_major_axis_km": 6772.280077668607,
      "eccentricity": 0.00111377,
      "inclination_deg": 51.6293,
      "raan_deg": 208.2184,
      "arg_perigee_deg": 332.856,
      "mean_anomaly_deg": 27.1849,
      "mean_motion_rev_day": 15.57759455
    },
    {
      "epoch": "2026-04-24T11:07:08.858208Z",
      "apogee_km": 401.4433952601112,
      "perigee_km": 386.2619488133387,
      "latitude_deg": -4.711246921204996e-05,
      "longitude_deg": -176.21076021011154,
      "height_km": 387.62552387677886,
      "semi_major_axis_km": 6771.989672036724,
      "eccentricity": 0.0011209,
      "inclination_deg": 51.6292,
      "raan_deg": 203.072,
      "arg_perigee_deg": 336.7445,
      "mean_anomaly_deg": 23.3038,
      "mean_motion_rev_day": 15.57859659
    },
    {
      "epoch": "2026-04-25T14:49:47.431776Z",
      "apogee_km": 401.1267815437086,
      "perigee_km": 385.7715327737351,
      "latitude_deg": 2.0020612211987e-06,
      "longitude_deg": 121.20081611786236,
      "height_km": 386.9235697303894,
      "semi_major_axis_km": 6771.586157158721,
      "eccentricity": 0.0011338,
      "inclination_deg": 51.6295,
      "raan_deg": 197.2823,
      "arg_perigee_deg": 341.2932,
      "mean_anomaly_deg": 18.7642,
      "mean_motion_rev_day": 15.57998909
    },
    {
      "epoch": "2026-04-26T13:55:12.614304Z",
      "apogee_km": 400.76029571920935,
      "perigee_km": 385.4275204509404,
      "latitude_deg": -6.121162611532064e-05,
      "longitude_deg": 129.07125335327837,
      "height_km": 386.4269063687483,
      "semi_major_axis_km": 6771.230908085075,
      "eccentricity": 0.0011322,
      "inclination_deg": 51.6293,
      "raan_deg": 192.456,
      "arg_perigee_deg": 345.2259,
      "mean_anomaly_deg": 14.84,
      "mean_motion_rev_day": 15.5812152
    },
    {
      "epoch": "2026-04-27T11:28:10.168608Z",
      "apogee_km": 400.4737897808627,
      "perigee_km": 385.06320886440426,
      "latitude_deg": 1.2627695470295175e-05,
      "longitude_deg": 160.442503363385,
      "height_km": 385.95825090927127,
      "semi_major_axis_km": 6770.905499322633,
      "eccentricity": 0.001138,
      "inclination_deg": 51.6293,
      "raan_deg": 187.952,
      "arg_perigee_deg": 348.6904,
      "mean_anomaly_deg": 11.3831,
      "mean_motion_rev_day": 15.58233846
    },
    {
      "epoch": "2026-04-28T10:33:22.790304Z",
      "apogee_km": 400.1988817225174,
      "perigee_km": 384.6536684429275,
      "latitude_deg": 3.691795491771635e-05,
      "longitude_deg": 168.36559002673556,
      "height_km": 385.46206753559574,
      "semi_major_axis_km": 6770.563275082723,
      "eccentricity": 0.001148,
      "inclination_deg": 51.6294,
      "raan_deg": 183.1258,
      "arg_perigee_deg": 352.6634,
      "mean_anomaly_deg": 7.4189,
      "mean_motion_rev_day": 15.58351991
    },
    {
      "epoch": "2026-04-29T20:24:51.219648Z",
      "apogee_km": 400.135125421215,
      "perigee_km": 383.84890306455236,
      "latitude_deg": 1.2108848446548238e-05,
      "longitude_deg": 12.026521085311712,
      "height_km": 384.59291402474054,
      "semi_major_axis_km": 6770.129014242883,
      "eccentricity": 0.0012028,
      "inclination_deg": 51.6294,
      "raan_deg": 176.0457,
      "arg_perigee_deg": 359.314,
      "mean_anomaly_deg": 0.7834,
      "mean_motion_rev_day": 15.58501931
    },
    {
      "epoch": "2026-04-30T08:43:31.361952Z",
      "apogee_km": 399.89958333556933,
      "perigee_km": 383.7741825437952,
      "latitude_deg": -4.007217298659708e-05,
      "longitude_deg": -175.72058072135212,
      "height_km": 384.5185615714263,
      "semi_major_axis_km": 6769.973882939682,
      "eccentricity": 0.00119095,
      "inclination_deg": 51.6293,
      "raan_deg": 173.4715,
      "arg_perigee_deg": 1.0561,
      "mean_anomaly_deg": 359.0454,
      "mean_motion_rev_day": 15.585555
    },
    {
      "epoch": "2026-05-02T08:25:33.788928Z",
      "apogee_km": 398.9674268508452,
      "perigee_km": 383.18162557172127,
      "latitude_deg": -2.2486921477177577e-05,
      "longitude_deg": 176.83222122027215,
      "height_km": 384.00619030670106,
      "semi_major_axis_km": 6769.211526211283,
      "eccentricity": 0.001166,
      "inclination_deg": 51.6277,
      "raan_deg": 163.4934,
      "arg_perigee_deg": 8.3453,
      "mean_anomaly_deg": 351.7731,
      "mean_motion_rev_day": 15.58818797
    },
    {
      "epoch": "2026-05-03T09:02:33.944064Z",
      "apogee_km": 398.5708104877749,
      "perigee_km": 382.86436030781897,
      "latitude_deg": 5.9992431702419795e-05,
      "longitude_deg": 161.41876483636295,
      "height_km": 383.7877949755299,
      "semi_major_axis_km": 6768.854585397797,
      "eccentricity": 0.0011602,
      "inclination_deg": 51.6266,
      "raan_deg": 158.3415,
      "arg_perigee_deg": 12.4175,
      "mean_anomaly_deg": 347.7102,
      "mean_motion_rev_day": 15.589421
    },
    {
      "epoch": "2026-05-04T11:11:45.264768Z",
      "apogee_km": 398.19467322115906,
      "perigee_km": 382.5046442974881,
      "latitude_deg": 6.907024458619239e-05,
      "longitude_deg": 122.573827358765,
      "height_km": 383.57415396073975,
      "semi_major_axis_km": 6768.486658759323,
      "eccentricity": 0.00115905,
      "inclination_deg": 51.6269,
      "raan_deg": 152.8678,
      "arg_perigee_deg": 16.7038,
      "mean_anomaly_deg": 343.4335,
      "mean_motion_rev_day": 15.59069215
    }
  ]
}